[{"OBJECT_NAME":"STARLINK-1913","OBJECT_ID":"2020-088BK","EPOCH":"2026-03-09T22:27:33.641856","MEAN_MOTION":15.30187321,"ECCENTRICITY":0.00011113,"INCLINATION":53.159,"RA_OF_ASC_NODE":305.9142,"ARG_OF_PERICENTER":99.3995,"MEAN_ANOMALY":260.7131,"EPHEMERIS_TYPE":0,"CLASSIFICATION_TYPE":"U","NORAD_CAT_ID":47179,"ELEMENT_SET_NO":999,"REV_AT_EPOCH":29180,"BSTAR":0.00010186015,"MEAN_MOTION_DOT":2.658e-5,"MEAN_MOTION_DDOT":0},{"OBJECT_NAME":"TIANMU-1 19","OBJECT_ID":"2023-208A","EPOCH":"2026-03-09T22:13:36.801696","MEAN_MOTION":15.2984143,"ECCENTRICITY":0.00039292,"INCLINATION":97.4383,"RA_OF_ASC_NODE":184.9132,"ARG_OF_PERICENTER":316.2611,"MEAN_ANOMALY":43.8317,"EPHEMERIS_TYPE":0,"CLASSIFICATION_TYPE":"U","NORAD_CAT_ID":58660,"ELEMENT_SET_NO":999,"REV_AT_EPOCH":12214,"BSTAR":0.00040995676,"MEAN_MOTION_DOT":0.00011779,"MEAN_MOTION_DDOT":0}]
